OBJECT_NAME,OBJECT_ID,EPOCH,MEAN_MOTION,ECCENTRICITY,INCLINATION,RA_OF_ASC_NODE,ARG_OF_PERICENTER,MEAN_ANOMALY,EPHEMERIS_TYPE,CLASSIFICATION_TYPE,NORAD_CAT_ID,ELEMENT_SET_NO,REV_AT_EPOCH,BSTAR,MEAN_MOTION_DOT,MEAN_MOTION_DDOT
ONEWEB-0012,2019-010A,2026-06-26T05:17:58.158528,13.16595668,.00018306,87.9090,226.9914,86.3273,273.8067,0,U,44057,999,35275,.65652353E-4,.38E-6,0
ONEWEB-0010,2019-010B,2026-06-26T04:05:00.736224,13.16595258,.00020271,87.9091,226.9973,106.1357,253.9998,0,U,44058,999,35279,-.30257579E-4,.1E-7,0
ONEWEB-0008,2019-010C,2026-06-26T04:41:28.519008,13.16595931,.00023126,87.9088,226.9876,93.8745,266.2651,0,U,44059,999,35291,.15511462E-3,.72E-6,0
ONEWEB-0007,2019-010D,2026-06-26T05:42:21.690720,13.15548918,.00017136,87.9000,257.4181,103.0954,257.0367,0,U,44060,999,35256,-.12553918E-3,-.34E-6,0
ONEWEB-0006,2019-010E,2026-06-26T05:48:03.902112,13.15538073,.00020217,87.9008,257.3820,104.0075,256.1281,0,U,44061,999,35261,-.39498629E-2,-.1474E-4,0
ONEWEB-0011,2019-010F,2026-06-26T06:51:56.949984,13.15548131,.00021827,87.9010,257.3835,102.8508,257.2866,0,U,44062,999,35261,.35928871E-3,.148E-5,0
ONEWEB-0013,2020-008A,2026-06-26T02:38:35.285568,13.09454764,.00018645,87.8507,51.0245,51.3413,308.7881,0,U,45131,999,30723,.16858615E-2,.593E-5,0
ONEWEB-0017,2020-008B,2026-06-26T02:04:17.115744,13.10363068,.00017909,87.8823,34.4960,92.0860,268.0473,0,U,45132,999,30911,-.15210857E-2,-.518E-5,0
ONEWEB-0020,2020-008C,2026-06-26T03:10:14.348064,13.10394677,.00017812,87.8828,34.4853,83.0826,277.0504,0,U,45133,999,30951,-.9893763E-2,-.3441E-4,0
ONEWEB-0021,2020-008D,2026-06-26T03:32:13.069536,13.10389670,.00016381,87.8818,34.4976,88.6230,271.5085,0,U,45134,999,30982,-.85945686E-2,-.2987E-4,0
ONEWEB-0023,2020-008F,2026-06-26T01:58:10.288992,13.10373665,.00019492,87.8827,34.4933,80.7190,279.4157,0,U,45136,999,30924,-.11150926E-2,-.377E-5,0
ONEWEB-0024,2020-008G,2026-06-26T03:07:58.396800,13.10385803,.00017192,87.8837,34.4765,88.1859,271.9466,0,U,45137,999,30941,-.31517952E-2,-.1088E-4,0
ONEWEB-0025,2020-008H,2026-06-26T03:07:35.034240,13.10392878,.00022314,87.8838,34.4664,86.9493,273.1890,0,U,45138,999,30974,-.84988558E-2,-.2954E-4,0
ONEWEB-0026,2020-008J,2026-06-26T02:02:49.124256,13.11417059,.00019155,87.8881,19.2965,91.9371,268.1976,0,U,45139,999,31227,.13253869E-2,.482E-5,0
ONEWEB-0028,2020-008K,2026-06-25T23:37:31.743552,13.11417013,.00017623,87.8878,19.3248,68.6586,291.4730,0,U,45140,999,30977,-.10818725E-2,-.371E-5,0
ONEWEB-0032,2020-008L,2026-06-26T02:06:54.013824,13.10364342,.00019539,87.8823,34.4977,69.6805,290.4533,0,U,45141,999,30946,.78923577E-3,.288E-5,0
ONEWEB-0033,2020-008M,2026-06-26T03:20:00.455424,13.10374664,.00018415,87.8822,34.4933,100.9696,259.1639,0,U,45142,999,30938,.57998996E-3,.215E-5,0
ONEWEB-0035,2020-008N,2026-06-26T03:49:30.618624,13.10373885,.00018489,87.8822,34.4829,87.9340,272.1999,0,U,45143,999,30911,-.10084743E-2,-.339E-5,0
ONEWEB-0036,2020-008P,2026-06-26T03:17:13.027776,13.10185695,.00016723,87.8840,34.5031,73.5779,286.5532,0,U,45144,999,30953,.68912403E-1,.24065E-3,0
ONEWEB-0038,2020-008Q,2026-06-26T02:17:39.967872,13.11415648,.00004383,87.8896,19.3044,154.5785,205.5364,0,U,45145,999,31149,.15871478E-2,.575E-5,0
ONEWEB-0039,2020-008R,2026-06-26T03:24:54.002880,13.10370304,.00017134,87.8822,34.4833,69.8456,290.2856,0,U,45146,999,30933,.16286879E-2,.581E-5,0
ONEWEB-0040,2020-008S,2026-06-26T03:15:05.816736,13.10378377,.00019014,87.8822,34.4959,72.9716,287.1620,0,U,45147,999,30903,.19935557E-2,.709E-5,0
ONEWEB-0043,2020-008U,2026-06-26T03:17:37.701024,13.10350003,.00018703,87.8825,34.4839,61.6599,298.4717,0,U,45149,999,30935,-.64618916E-2,-.2242E-4,0
ONEWEB-0044,2020-008V,2026-06-26T03:59:08.105856,13.10349968,.00017667,87.8833,34.4789,79.6413,280.4913,0,U,45150,999,30965,-.16520447E-2,-.564E-5,0
ONEWEB-0045,2020-008W,2026-06-26T02:10:08.749920,13.11416511,.00017235,87.8891,19.2875,83.8855,276.2469,0,U,45151,999,31157,.1784625E-2,.645E-5,0
ONEWEB-0047,2020-008X,2026-06-26T01:59:09.676032,13.10374160,.00016689,87.8832,34.4947,90.5807,269.5511,0,U,45152,999,30936,-.11517801E-2,-.389E-5,0
ONEWEB-0048,2020-008Y,2026-06-26T03:42:00.584352,13.10379771,.00018197,87.8822,34.5011,87.1461,272.9874,0,U,45153,999,30898,-.50832924E-2,-.1762E-4,0
ONEWEB-0049,2020-008Z,2026-06-26T03:46:40.523808,13.10374073,.00021643,87.8821,34.4894,79.9639,280.1732,0,U,45154,999,30920,-.11362078E-2,-.384E-5,0
ONEWEB-0051,2020-008AA,2026-06-26T02:07:43.578048,13.11410257,.00016597,87.8885,19.2946,87.0608,273.0709,0,U,45155,999,31225,.55838922E-2,.1992E-4,0
ONEWEB-0052,2020-008AB,2026-06-26T02:26:28.145760,13.10359884,.00021634,87.8832,34.4875,77.2522,282.8847,0,U,45156,999,30910,-.14157635E-2,-.481E-5,0
